METEOSAT-7              
1 24932U 97049B   16091.42887948  .00000047  00000-0  00000+0 0  9996
2 24932  10.0966  41.4056 0001847 303.4825  56.5031  1.00275983 68020
NOAA 15                 
1 25338U 98030A   16092.51654303  .00000080  00000-0  52389-4 0  9995
2 25338  98.7836  96.5121 0011521  52.8094 307.4135 14.25713950930064
METEOSAT-8 (MSG-1)      
1 27509U 02040B   16092.26590870  .00000009  00000-0  00000+0 0  9992
2 27509   4.0671  60.0229 0000757 259.0474 330.2471  1.00270167 49852
KALPANA-1 (METSAT 1)    
1 27525U 02043A   16091.43082176 -.00000089  00000-0  00000+0 0  9995
2 27525   5.5986  58.2671 0013946 227.7946 132.1758  1.00273414 49647
INSAT-3A                
1 27714U 03013A   16091.72291907 -.00000270  00000-0  00000+0 0  9991
2 27714   0.0213 134.5605 0005831 281.9900 126.7129  1.00273541 47551
NOAA 18                 
1 28654U 05018A   16092.54848238  .00000022  00000-0  37291-4 0  9999
2 28654  99.1985  97.4848 0013552 227.0703 132.9332 14.12276531559919
METEOSAT-9 (MSG-2)      
1 28912U 05049B   16092.26574873  .00000050  00000-0  00000+0 0  9994
2 28912   1.3545  66.9693 0002176 269.7327 318.2332  1.00270968 37682
MTSAT-2                 
1 28937U 06004A   16091.92332491 -.00000254  00000-0  00000+0 0  9990
2 28937   0.0167 128.7986 0003918 251.2499 287.0667  1.00275486 36951
FORMOSAT-3 FM6          
1 29047U 06011A   16092.18981334  .00000187  00000-0  90098-4 0  9991
2 29047  71.9820   8.9852 0051387 196.1983 163.7514 14.28492116521647
FORMOSAT-3 FM1          
1 29048U 06011B   16092.50608876  .00000116  00000-0  62241-4 0  9996
2 29048  71.9664 280.9671 0043833 150.3052 241.4011 14.28434773524184
FORMOSAT-3 FM5          
1 29049U 06011C   16091.44657324  .00000090  00000-0  52216-4 0  9993
2 29049  72.0185  86.0821 0035799 194.5242 165.4869 14.28454510519800
FORMOSAT-3 FM3          
1 29050U 06011D   16092.14556351  .00000255  00000-0  64750-4 0  9990
2 29050  72.0180  27.1505 0052212 240.5334 119.0604 14.58253872532128
FORMOSAT-3 FM4          
1 29051U 06011E   16092.17503245  .00000146  00000-0  72817-4 0  9990
2 29051  72.0080 349.4486 0066798  64.0077 296.7919 14.28471394522492
FORMOSAT-3 FM2          
1 29052U 06011F   16092.41673312  .00000119  00000-0  63257-4 0  9999
2 29052  72.0345  58.6092 0039719 155.8747 204.4262 14.28570414520842
GOES 13                 
1 29155U 06018A   16091.68093615 -.00000263  00000-0  00000+0 0  9993
2 29155   0.3570 269.2024 0006461 145.3370 305.5181  1.00272511 36128
METOP-A                 
1 29499U 06044A   16092.55120824  .00000013  00000-0  26125-4 0  9996
2 29499  98.7043 152.6206 0001633  51.0184  86.3343 14.21483121490399
FENGYUN 2D              
1 29640U 06053A   16091.82899858 -.00000369  00000-0  10000-3 0  9992
2 29640   3.6327  66.6564 0000810  66.5807 118.3133  1.00265608 34160
FENGYUN 3A              
1 32958U 08026A   16092.51310227  .00000029  00000-0  33219-4 0  9995
2 32958  98.4617 135.9818 0010725 118.1655 242.0612 14.19611474406679
FENGYUN 2E              
1 33463U 08066A   16090.97869019 -.00000209  00000-0  00000-0 0  9996
2 33463   1.3647  60.6162 0002519 220.2806 346.7501  1.00265591 26687
NOAA 19                 
1 33591U 09005A   16092.49093137  .00000113  00000-0  86542-4 0  9993
2 33591  99.0318  48.6703 0015056  75.8338 284.4505 14.12057027368310
GOES 14                 
1 35491U 09033A   16091.76423726 -.00000103  00000-0  00000+0 0  9995
2 35491   0.0984 106.6186 0003018 125.6169 127.7351  1.00272160 24769
METEOR-M 1              
1 35865U 09049A   16092.53289967  .00000022  00000-0  28615-4 0  9996
2 35865  98.4644 126.9421 0002499  24.5156 335.6140 14.22059725339325
GOES 15                 
1 36411U 10008A   16091.84868413  .00000077  00000-0  00000+0 0  9996
2 36411   0.0349 135.8356 0001634 263.0256 321.1483  1.00264984 22293
COMS 1                  
1 36744U 10032A   16090.77643603 -.00000355  00000-0  00000+0 0  9995
2 36744   0.0494  35.2663 0001524 297.4887 263.5558  1.00270318 21240
FENGYUN 3B              
1 37214U 10059A   16092.49771692  .00000017  00000-0  31192-4 0  9993
2 37214  98.8349  47.6710 0016631 320.8461  39.1504 14.15806302280042
ELEKTRO-L 1 (GOMS 2)    
1 37344U 11001A   16092.06266837 -.00000110  00000-0  00000+0 0  9992
2 37344   1.5543  79.6961 0003908 183.6373  25.2344  1.00271345 19070
SUOMI NPP               
1 37849U 11061A   16090.95008692  .00000058  00000-0  48017-4 0  9992
2 37849  98.7155  30.3231 0001251  50.9535  13.6620 14.19542606229218
FENGYUN 2F              
1 38049U 12002A   16092.49974248 -.00000370  00000-0  00000+0 0  9994
2 38049   0.8303  74.0705 0002073 133.4304 274.8391  1.00278676 15505
METEOSAT-10 (MSG-3)     
1 38552U 12035B   16091.47484031 -.00000017  00000-0  00000+0 0  9990
2 38552   0.6346  86.7879 0001762 188.7968  84.3935  1.00267518 13828
METOP-B                 
1 38771U 12049A   16091.80842252  .00000012  00000-0  25547-4 0  9990
2 38771  98.6979 151.9728 0002015  78.6862  32.8543 14.21487613183424
FENGYUN 3C              
1 39260U 13052A   16092.56002418  .00000013  00000-0  26769-4 0  9993
2 39260  98.6963 165.1986 0001243 111.9903 248.1404 14.19609826130725
METEOR-M 2              
1 40069U 14037A   16092.42112181 -.00000032  00000-0  56293-5 0  9998
2 40069  98.7154 148.7666 0006650  55.5752 304.6054 14.20627845 89838
HIMAWARI 8              
1 40267U 14060A   16092.08216797 -.00000289  00000-0  00000+0 0  9997
2 40267   0.0117 189.6035 0001368 198.5462 331.8578  1.00267299  5472
FENGYUN 2G              
1 40367U 14090A   16091.17126256 -.00000342  00000-0  00000+0 0  9990
2 40367   1.3520 273.2629 0003519 256.2804 185.7250  1.00271300  4645
METEOSAT-11 (MSG-4)     
1 40732U 15034A   16092.20067884 -.00000045  00000-0  00000+0 0  9991
2 40732   2.6641 258.9878 0002290  89.4388 270.1657  1.00275472  2656
ELEKTRO-L 2             
1 41105U 15074A   16092.20573591 -.00000128  00000-0  00000+0 0  9999
2 41105   0.2454 277.8309 0001607 155.8301 268.2154  1.00273884  1126
